{
  "type": "FeatureCollection",
  "name": "mock_slope_units_aizawl",
  "_comment": "MOCK DATA -- illustrative only, NOT real slope units. Polygons hand-drawn over the Aizawl area so the map renders correctly; they are NOT derived from a DEM. Rudra's R3 step will replace this file with real WhiteboxTools output. Attribute values are placeholders.",
  "crs": {
    "type": "name",
    "properties": { "name": "urn:ogc:def:crs:OGC:1.3:CRS84" }
  },
  "features": [
    {
      "type": "Feature",
      "properties": {
        "id": "AZ-1142",
        "district_id": "aizawl",
        "ward_name": "Melthum",
        "area_ha": 8.4,
        "mean_slope_deg": 34.2,
        "max_slope_deg": 51.7,
        "aspect_sin": 0.71,
        "aspect_cos": -0.70,
        "relief_m": 142.0,
        "profile_curvature": -0.014,
        "twi": 6.8,
        "lithology_class": "shale_sandstone",
        "landcover_class": "built_up",
        "geological_province": "INDO_BURMAN",
        "dist_to_road_m": 45.0,
        "has_road_cut": true,
        "mean_annual_precip_mm": 2100.0,
        "susceptibility_score": 0.78,
        "seismic_weakening": 0.0
      },
      "geometry": {
        "type": "Polygon",
        "coordinates": [[
          [92.7180, 23.7290], [92.7212, 23.7288], [92.7224, 23.7266],
          [92.7208, 23.7248], [92.7178, 23.7252], [92.7166, 23.7272],
          [92.7180, 23.7290]
        ]]
      }
    },
    {
      "type": "Feature",
      "properties": {
        "id": "AZ-1147",
        "district_id": "aizawl",
        "ward_name": "Melthum",
        "area_ha": 5.1,
        "mean_slope_deg": 38.9,
        "max_slope_deg": 56.3,
        "aspect_sin": 0.64,
        "aspect_cos": -0.77,
        "relief_m": 118.0,
        "profile_curvature": -0.021,
        "twi": 7.4,
        "lithology_class": "shale_sandstone",
        "landcover_class": "built_up",
        "geological_province": "INDO_BURMAN",
        "dist_to_road_m": 22.0,
        "has_road_cut": true,
        "mean_annual_precip_mm": 2100.0,
        "susceptibility_score": 0.84,
        "seismic_weakening": 0.0
      },
      "geometry": {
        "type": "Polygon",
        "coordinates": [[
          [92.7224, 23.7266], [92.7252, 23.7262], [92.7260, 23.7240],
          [92.7238, 23.7226], [92.7210, 23.7234], [92.7208, 23.7248],
          [92.7224, 23.7266]
        ]]
      }
    },
    {
      "type": "Feature",
      "properties": {
        "id": "AZ-1203",
        "district_id": "aizawl",
        "ward_name": "Chaltlang",
        "area_ha": 14.7,
        "mean_slope_deg": 26.5,
        "max_slope_deg": 41.2,
        "aspect_sin": -0.34,
        "aspect_cos": 0.94,
        "relief_m": 96.0,
        "profile_curvature": 0.008,
        "twi": 5.2,
        "lithology_class": "shale_sandstone",
        "landcover_class": "tree_cover",
        "geological_province": "INDO_BURMAN",
        "dist_to_road_m": 310.0,
        "has_road_cut": false,
        "mean_annual_precip_mm": 2050.0,
        "susceptibility_score": 0.41,
        "seismic_weakening": 0.0
      },
      "geometry": {
        "type": "Polygon",
        "coordinates": [[
          [92.7320, 23.7420], [92.7368, 23.7416], [92.7382, 23.7382],
          [92.7356, 23.7358], [92.7314, 23.7366], [92.7302, 23.7398],
          [92.7320, 23.7420]
        ]]
      }
    },
    {
      "type": "Feature",
      "properties": {
        "id": "AZ-1088",
        "district_id": "aizawl",
        "ward_name": "Bawngkawn",
        "area_ha": 3.2,
        "mean_slope_deg": 41.6,
        "max_slope_deg": 58.9,
        "aspect_sin": 0.98,
        "aspect_cos": 0.17,
        "relief_m": 87.0,
        "profile_curvature": -0.032,
        "twi": 8.1,
        "lithology_class": "shale_sandstone",
        "landcover_class": "built_up",
        "geological_province": "INDO_BURMAN",
        "dist_to_road_m": 12.0,
        "has_road_cut": true,
        "mean_annual_precip_mm": 2080.0,
        "susceptibility_score": 0.91,
        "seismic_weakening": 0.0
      },
      "geometry": {
        "type": "Polygon",
        "coordinates": [[
          [92.7412, 23.7508], [92.7434, 23.7506], [92.7440, 23.7488],
          [92.7426, 23.7478], [92.7406, 23.7484], [92.7402, 23.7498],
          [92.7412, 23.7508]
        ]]
      }
    },
    {
      "type": "Feature",
      "properties": {
        "id": "AZ-0964",
        "district_id": "aizawl",
        "ward_name": "Durtlang",
        "area_ha": 19.3,
        "mean_slope_deg": 21.8,
        "max_slope_deg": 33.4,
        "aspect_sin": -0.87,
        "aspect_cos": -0.49,
        "relief_m": 74.0,
        "profile_curvature": 0.017,
        "twi": 4.6,
        "lithology_class": "shale_sandstone",
        "landcover_class": "tree_cover",
        "geological_province": "INDO_BURMAN",
        "dist_to_road_m": 520.0,
        "has_road_cut": false,
        "mean_annual_precip_mm": 2030.0,
        "susceptibility_score": 0.23,
        "seismic_weakening": 0.0
      },
      "geometry": {
        "type": "Polygon",
        "coordinates": [[
          [92.7060, 23.7620], [92.7118, 23.7614], [92.7136, 23.7574],
          [92.7104, 23.7546], [92.7052, 23.7558], [92.7038, 23.7596],
          [92.7060, 23.7620]
        ]]
      }
    }
  ]
}
